[{"OBJECT_NAME":"GEOSCAN 1 (RS92S1)","OBJECT_ID":"2025-155E","EPOCH":"2026-03-09T22:44:05.846496","MEAN_MOTION":15.28410635,"ECCENTRICITY":0.00087099,"INCLINATION":97.4463,"RA_OF_ASC_NODE":37.403,"ARG_OF_PERICENTER":153.6429,"MEAN_ANOMALY":206.5255,"EPHEMERIS_TYPE":0,"CLASSIFICATION_TYPE":"U","NORAD_CAT_ID":64880,"ELEMENT_SET_NO":999,"REV_AT_EPOCH":6560,"BSTAR":0.00054367431,"MEAN_MOTION_DOT":0.00014993,"MEAN_MOTION_DDOT":0},{"OBJECT_NAME":"STARLINK-35805","OBJECT_ID":"2025-254M","EPOCH":"2026-03-09T17:26:09.598272","MEAN_MOTION":15.30193213,"ECCENTRICITY":8.236e-5,"INCLINATION":53.1582,"RA_OF_ASC_NODE":232.1143,"ARG_OF_PERICENTER":81.1817,"MEAN_ANOMALY":278.9277,"EPHEMERIS_TYPE":0,"CLASSIFICATION_TYPE":"U","NORAD_CAT_ID":66359,"ELEMENT_SET_NO":999,"REV_AT_EPOCH":2011,"BSTAR":0.00043263139,"MEAN_MOTION_DOT":0.00012473,"MEAN_MOTION_DDOT":0}]
